SCD 1                   
1 22490U 93009B   24154.32335368  .00000507  00000+0  89081-4 0  9998
2 22490  24.9686 124.2422 0042517 178.0152 331.9106 14.45289296653607
TECHSAT 1B (GO-32)      
1 25397U 98043D   24153.49873690  .00000140  00000+0  80956-4 0  9997
2 25397  98.9207 119.9882 0001243 153.5352 206.5890 14.24049897345184
SCD 2                   
1 25504U 98060A   24153.89386493  .00000561  00000+0  10721-3 0  9999
2 25504  24.9966 346.2168 0017037 170.0528 324.6754 14.44773755352755
LANDSAT 7               
1 25682U 99020A   24154.57845042  .00000673  00000+0  14715-3 0  9990
2 25682  97.8881 182.0565 0001724  83.0806  68.7076 14.60675881337061
DLR-TUBSAT              
1 25757U 99029B   24154.48585516  .00000197  00000+0  60480-4 0  9991
2 25757  98.5852 118.0806 0015576  95.5910 264.7061 14.51904047325261
TERRA                   
1 25994U 99068A   24154.48783892  .00000663  00000+0  14822-3 0  9990
2 25994  98.0486 218.4068 0003148  69.1777 348.5201 14.59787273301020
MAROC-TUBSAT            
1 27004U 01056D   24154.08375775  .00000001  00000+0  53113-4 0  9990
2 27004  99.7316 308.3989 0019058 252.0990 220.3692 13.70205436124147
AQUA                    
1 27424U 02022A   24154.50116420  .00001298  00000+0  28444-3 0  9994
2 27424  98.3300 103.8161 0001858 105.2712 347.5566 14.59334654174578
IRS-P6 (RESOURCESAT-1)  
1 28051U 03046A   24154.45889275  .00000390  00000+0  14651-3 0  9994
2 28051  98.2944 212.3085 0065794  54.0820   3.5107 14.35471051 73686
SHIYAN 1 (SY-1)         
1 28220U 04012A   24153.56969620  .00008019  00000+0  47743-3 0  9994
2 28220  97.9656 180.6725 0010985  87.6470 272.6016 15.11455191 97634
AURA                    
1 28376U 04026A   24153.86727207  .00001312  00000+0  29173-3 0  9993
2 28376  98.2506  98.8103 0002173  94.3784 265.7663 14.58621203 57486
IRS-P5 (CARTOSAT-1)     
1 28649U 05017A   24153.60083888  .00001932  00000+0  22186-3 0  9994
2 28649  97.6148 197.6731 0002182  62.1728 297.9709 14.86939888 32843
SINAH 1                 
1 28893U 05043D   24153.87263947  .00000657  00000+0  13820-3 0  9997
2 28893  98.1923 277.8145 0016120  91.1688 269.1360 14.62734692991753
EROS B                  
1 29079U 06014A   24154.54079211  .00016708  00000+0  84660-3 0  9991
2 29079  97.3334 269.3193 0010261 254.7611 105.2489 15.16997067  5316
RESURS-DK 1             
1 29228U 06021A   24153.29201409  .00003313  00000+0  22635-3 0  9994
2 29228  69.9344 102.5160 0003222 351.1497   8.9609 15.07180937989924
ARIRANG-2 (KOMPSAT-2)   
1 29268U 06031A   24154.54987483  .00000465  00000+0  98135-4 0  9995
2 29268  97.8654   3.5199 0013294 275.0727 111.9781 14.63569169952604
LAPAN-TUBSAT            
1 29709U 07001A   24154.51203126  .00000979  00000+0  12417-3 0  9993
2 29709  98.0678 129.5558 0014033  88.9559 271.3263 14.83987250940630
HAIYANG-1B              
1 31113U 07010A   24153.98919773  .00000172  00000+0  81734-4 0  9991
2 31113  98.2945 156.7139 0012389 249.6046 110.3807 14.30608546894800
COSMO-SKYMED 1          
1 31598U 07023A   24154.48616193  .00000773  00000+0  10365-3 0  9996
2 31598  97.8866 337.8475 0001497  89.0392 271.0993 14.82156742919012
TERRASAR-X              
1 31698U 07026A   24153.56288806  .00002023  00000+0  99510-4 0  9994
2 31698  97.4451 160.9375 0002051  86.6597 273.4872 15.19155005940681
WORLDVIEW-1 (WV-1)      
1 32060U 07041A   24154.30827600  .00008760  00000+0  36511-3 0  9994
2 32060  97.3789 273.8778 0005597 346.9109  13.1982 15.23926621929546
YAOGAN-3                
1 32289U 07055A   24154.52364858  .00002575  00000+0  30736-3 0  9998
2 32289  97.8879 179.9691 0001565  81.5480 278.5912 14.85112348895158
COSMO-SKYMED 2          
1 32376U 07059A   24154.51992673  .00000736  00000+0  98959-4 0  9999
2 32376  97.8865 337.8778 0001497  90.6236 269.5148 14.82156571891773
RADARSAT-2              
1 32382U 07061A   24154.47794081  .00000135  00000+0  69332-4 0  9993
2 32382  98.5772 161.0615 0001272  90.1010 270.0318 14.29984689859633
CARTOSAT-2A             
1 32783U 08021A   24154.49124319  .00001258  00000+0  17807-3 0  9994
2 32783  97.8666 213.2540 0012035  15.0478 345.1089 14.78736000868839
HUANJING 1A (HJ-1A)     
1 33320U 08041A   24154.49185227  .00002148  00000+0  29004-3 0  9990
2 33320  97.6308 162.2315 0021793  61.8870 298.4542 14.79890734848183
HUANJING 1B (HJ-1B)     
1 33321U 08041B   24154.49895524  .00001563  00000+0  20943-3 0  9992
2 33321  97.6264 166.7780 0040017 103.6696 256.8977 14.80205046848202
GEOEYE 1                
1 33331U 08042A   24154.48486594  .00000848  00000+0  16875-3 0  9990
2 33331  98.1098 227.0417 0006386 202.0401 158.0528 14.64567123841163
THEOS                   
1 33396U 08049A   24154.50819120  .00000109  00000+0  71374-4 0  9992
2 33396  98.6579 220.6937 0001145  89.4052 270.7255 14.20076130812292
COSMO-SKYMED 3          
1 33412U 08054A   24154.52448225  .00003608  00000+0  31444-3 0  9993
2 33412  97.8774 351.1404 0015133 262.9962  96.9538 14.97454610845091
YAOGAN-4                
1 33446U 08061A   24153.74213568  .00000609  00000+0  87744-4 0  9994
2 33446  97.8788  85.9162 0014781 342.2705  17.7989 14.79769065835274
GOSAT (IBUKI)           
1 33492U 09002A   24153.84571519  .00001273  00000+0  23274-3 0  9990
2 33492  98.0368 265.6349 0001171 100.0363 260.0974 14.67570376822607
YAOGAN-6                
1 34839U 09021A   24154.50095567  .00016941  00000+0  32904-3 0  9993
2 34839  97.1694 122.1139 0015576 225.7953 134.2019 15.47565910841186
DEIMOS-1                
1 35681U 09041A   24154.45789595  .00000817  00000+0  13345-3 0  9999
2 35681  97.6800 337.1711 0002840  82.9165 277.2366 14.73305223797144
DUBAISAT-1              
1 35682U 09041B   24154.38635652  .00001358  00000+0  22624-3 0  9997
2 35682  97.9049 291.0618 0010056 304.8422  55.1839 14.71543686795463
OCEANSAT-2              
1 35931U 09051A   24154.48725112  .00000263  00000+0  20611-3 0  9995
2 35931  98.2643 204.6858 0016794 171.9380 188.2059 13.99462524775168
WORLDVIEW-2 (WV-2)      
1 35946U 09055A   24154.50482994  .00000226  00000+0  91193-4 0  9999
2 35946  98.4362 227.5940 0002880 281.2009  78.8853 14.36801473768782
SMOS                    
1 36036U 09059A   24154.12023343  .00000512  00000+0  17723-3 0  9995
2 36036  98.4431 341.2872 0001241  83.5328 276.6002 14.39785413766381
YAOGAN-7                
1 36110U 09069A   24154.23101343  .00000661  00000+0  10288-3 0  9992
2 36110  98.1077  30.0151 0024018 276.7679  83.0798 14.76227448779681
TANDEM-X                
1 36605U 10030A   24153.56288715  .00001975  00000+0  97210-4 0  9995
2 36605  97.4452 160.9351 0001757  88.7543 271.3893 15.19155105773433
CARTOSAT-2B             
1 36795U 10035A   24154.46024035  .00001225  00000+0  17351-3 0  9998
2 36795  97.8607 212.8727 0013713  88.2766 272.0016 14.78738132749877
YAOGAN-10               
1 36834U 10038A   24154.56759326  .00001036  00000+0  13463-3 0  9994
2 36834  97.9485 171.7856 0001587  84.2247  74.1687 14.82806906746836
COSMO-SKYMED 4          
1 37216U 10060A   24154.53257509  .00000758  00000+0  10179-3 0  9998
2 37216  97.8867 337.8940 0001476  86.5989 273.5393 14.82159168734329
RESOURCESAT-2           
1 37387U 11015A   24154.52338538  .00000231  00000+0  12442-3 0  9990
2 37387  98.5774 220.6925 0005017 146.7518 213.3976 14.21686723680905
HAIYANG-2A              
1 37781U 11043A   24154.46449017  .00000024  00000+0  66615-4 0  9999
2 37781  99.3251 158.1963 0001640 102.0318 258.1017 13.78783173644305
RASAT                   
1 37791U 11044D   24154.52292575  .00000835  00000+0  15952-3 0  9990
2 37791  98.0776 246.2361 0021934  33.6372  87.6773 14.66332516683993
SRMSAT                  
1 37841U 11058D   24154.56216067  .00000513  00000+0  13597-3 0  9993
2 37841  19.9715 245.2432 0011674 294.4313 185.4351 14.11119049652713
YAOGAN-13               
1 37941U 11072A   24154.52533688  .00023307  00000+0  52641-3 0  9996
2 37941  97.7179 137.3691 0003971  85.4506 274.7194 15.43198194694215
PLEIADES 1A             
1 38012U 11076F   24154.52274519  .00000583  00000+0  13537-3 0  9997
2 38012  98.2039 229.1883 0001069  86.4483 330.1198 14.58522070663452
ZIYUAN 1-02C (ZY 1-02C) 
1 38038U 11079A   24154.53128696  .00000665  00000+0  23994-3 0  9992
2 38038  98.4980 223.0959 0006835  22.3469  90.0024 14.36820120652263
ZIYUAN 3-1 (ZY 3-1)     
1 38046U 12001A   24154.47553950  .00012962  00000+0  42862-3 0  9993
2 38046  97.2476 216.7467 0005325 175.0694 185.0601 15.31464597688680
ARIRANG-3 (KOMPSAT-3)   
1 38338U 12025B   24154.50234921  .00000842  00000+0  17441-3 0  9990
2 38338  98.2616 100.7615 0008864 288.8667  71.1573 14.62787355642598
KANOPUS-V 1             
1 38707U 12039A   24153.80108290  .00023169  00000+0  44218-3 0  9995
2 38707  97.4963  91.7122 0004719 101.0286 259.1495 15.48138476658838
EXACTVIEW-1 (ADS-1B)    
1 38709U 12039C   24154.21395661  .00000203  00000+0  10771-3 0  9994
2 38709  98.9502 245.7911 0011442 153.9735 206.2021 14.24457722616628
SPOT 6                  
1 38755U 12047A   24154.45851388  .00000888  00000+0  20107-3 0  9996
2 38755  98.2228 221.2569 0001165  83.4053 276.7278 14.58509844624520
PLEIADES 1B             
1 39019U 12068A   24154.47779112 -.00000017  00000+0  60632-5 0  9993
2 39019  98.1961 229.1820 0001222  92.1346 267.9994 14.58527596612292
GOKTURK 2               
1 39030U 12073A   24154.56724353  .00000758  00000+0  12283-3 0  9997
2 39030  97.7547  16.1107 0001055 107.5167 252.6157 14.73903174614783
LANDSAT 8               
1 39084U 13008A   24154.50962194  .00000332  00000+0  83849-4 0  9991
2 39084  98.2292 224.2915 0001296  85.9863 274.1483 14.57102112601279
SARAL                   
1 39086U 13009A   24154.20184157  .00000186  00000+0  84739-4 0  9992
2 39086  98.5510 339.5252 0001660   8.3211 351.8000 14.32421194588934
GAOFEN-1                
1 39150U 13018A   24154.49172746  .00001114  00000+0  16705-3 0  9995
2 39150  97.9894 227.0129 0021014 141.7664 218.5041 14.76441077598392
